#aV2019  7 26  0  0  0.00000000     288 DD+AD WGS84 FIT  NGA
## 2063 432000.00000000   300.00000000 58690 0.0000000000000
+   31     1  2  3  5  6  7  8  9 10 11 12 13 14 15 16 17 18
+         19 20 21 22 23 24 25 26 27 28 29 30 31 32  0  0  0
+          0  0  0  0  0  0  0  0  0  0  0  0  0  0  0  0  0
+          0  0  0  0  0  0  0  0  0  0  0  0  0  0  0  0  0
+          0  0  0  0  0  0  0  0  0  0  0  0  0  0  0  0  0
++         2  2  2  2  2  2  2  2  2  2  2  2  2  2  2  2  2
++         2  2  2  2  2  2  2  2  2  2  2  2  2  2  0  0  0
++         0  0  0  0  0  0  0  0  0  0  0  0  0  0  0  0  0
++         0  0  0  0  0  0  0  0  0  0  0  0  0  0  0  0  0
++         0  0  0  0  0  0  0  0  0  0  0  0  0  0  0  0  0
%c cc cc ccc ccc cccc cccc cccc cccc ccccc ccccc ccccc ccccc
%c cc cc ccc ccc cccc cccc cccc cccc ccccc ccccc ccccc ccccc
%f  0.0000000  0.000000000  0.00000000000  0.000000000000000
%f  0.0000000  0.000000000  0.00000000000  0.000000000000000
%i    0    0    0    0      0      0      0      0         0
%i    0    0    0    0      0      0      0      0         0
/*      NGA, ST. LOUIS,MO.                                  
/*   EPHEMERIS COMPUTED FROM 2 DAYS OF DATA                 
/*   EPOCHA v5 SMOOTHER                                     
/*   G1762 IERS2010 SATAF SATAPC                            
*  2019  7 26  5 15  0.00000000
P  1 -20992.984093 -12024.237035  11128.393820    -77.850781                    
V  1  -8229.748498 -11828.441790 -27500.502807     -0.108566                    
P  2  13123.693782  21561.926474   9100.306198   -268.576604                    
V  2  -9411.979468  -5619.304105  28688.938277     -0.085274                    
P  3 -14969.497137  -2712.419426  21720.883488    178.865584                    
V  3   8143.585896 -26463.657218   2391.244499     -0.024331                    
P  5   4775.787327  21548.018094 -14753.839655     -0.182221                    
V  5  -7448.595984  17235.103308  23161.988636     -0.002407                    
P  6      4.160894  18798.092391  18789.451118     -5.226874                    
V  6 -16963.359225 -16664.765797  16741.617958     -0.114438                    
P  7 -17232.355905   1891.067618 -19979.216433    -71.980693                    
V  7 -16469.506553 -19962.716077  11676.291227     -0.077647                    
P  8 -20258.472980  -6493.278787 -16004.964294     -0.225039                    
V  8  19362.898836  -6208.002295 -21747.280998     -0.014094                    
P  9 -25062.787240   8230.634541  -3172.476012    362.563629                    
V  9  -4577.756879  -2054.400606  31216.843862     -0.085382                    
P 10  11340.656341 -23224.934325  -5564.095858    -29.169556                    
V 10    540.005915   7700.122666 -30891.145228     -0.134019                    
P 11 -24831.762872  -8783.075541   1406.682717   -551.825143                    
V 11   -517.653042  -5239.022573 -30692.322191      0.096121                    
P 12  13120.835009   6600.098947  21919.166599    220.309938                    
V 12 -10383.268202  26310.665982  -1533.500006     -0.036378                    
P 13  10849.102029  13157.509121 -20485.800153    -52.834606                    
V 13 -25536.902305   3282.575102 -11422.277796      0.018293                    
P 14   5036.986284 -15648.560406  21154.411130    -69.736018                    
V 14  26010.487589  -2813.359152  -8586.433308      0.018379                    
P 15  21278.517344   5325.972824 -15512.804239   -298.453007                    
V 15 -17510.401518   8120.300456 -21217.977378      0.025030                    
P 16  -1921.043550 -21670.553544 -15115.743733    -59.406431                    
V 16   8916.469321 -16861.658860  23748.293355     -0.032654                    
P 17 -13626.434050  14397.614661  18043.029188     95.275160                    
V 17 -21968.333616   2437.865656 -19051.876575      0.067312                    
P 18 -19908.824611 -17463.740508   2238.102027     72.841637                    
V 18   -386.583812  -4501.511983 -31380.119284      0.029890                    
P 19  -7660.900206  14672.084358  20479.991599   -289.330553                    
V 19 -26539.390384   2311.799794 -11366.503740      0.049253                    
P 20  14041.031561 -17418.554598 -14291.179079    526.153510                    
V 20   -496.347879  18336.319629 -23164.720287      0.001796                    
P 21  13280.038376  -7878.143807 -20806.324428   -147.859852                    
V 21  19887.987542  20210.393316   5026.912736      0.068207                    
P 22 -13268.794726 -10790.289464  20567.465254   -735.943944                    
V 22   6878.112345 -24798.493534  -8579.062867     -0.048720                    
P 23 -25054.161317  -1156.820737   9665.698723   -175.422725                    
V 23  10748.399694  -5313.061199  27834.710030      0.018586                    
P 24  21780.338241  13130.758867   8072.799929    -69.315101                    
V 24   5282.846401   9463.580476 -28744.035980     -0.005241                    
P 25  16296.732561  -8444.592111  18892.101311     -3.463534                    
V 25  -6082.465481  23776.498249  15940.916293     -0.024535                    
P 26   3543.705456 -25714.357458  -5175.587172    260.310607                    
V 26   4884.303025  -5455.027662  30730.384424      0.091835                    
P 27  -8040.331813 -13201.720876 -21748.489403     -4.902448                    
V 27  26538.981827  -6196.901513  -5790.334138     -0.110238                    
P 28 -12877.698013  22691.181753  -4634.539419    765.901517                    
V 28    616.450984  -6925.181602 -31429.170993     -0.005698                    
P 29  26255.238350  -4080.507671    -99.560027    141.763274                    
V 29    384.816739   1980.948446  32281.108557     -0.098900                    
P 30  -9543.370785  12719.183954 -21226.961593     -6.563907                    
V 30 -17886.439791 -20393.690770  -4368.241711     -0.076508                    
P 31   -729.037446 -19700.350122  17579.424388     21.761819                    
V 31  16172.169950  15771.406161  18776.737268     -0.025945                    
P 32  13056.470719 -15442.047634  17218.967413     11.947821                    
V 32  21668.545352  -3044.179621 -19351.170785      0.149942                    
EOF
